NORAD_CAT_ID,OBJECT_NAME,OBJECT_TYPE,EPOCH,MEAN_MOTION,ECCENTRICITY,INCLINATION,RA_OF_ASC_NODE,ARG_OF_PERICENTER,MEAN_ANOMALY,BSTAR,MEAN_MOTION_DOT,MEAN_MOTION_DDOT,TLE_LINE0,TLE_LINE1,TLE_LINE2,SEMIMAJOR_AXIS,PERIOD,APOGEE,PERIGEE,DECAYED
53925.0,STARLINK-5011,PAYLOAD,2024-03-31 17:39:24,15.08874936,9.56e-05,53.2161,251.8489,95.1075,265.0027,0.0012356,0.0001945,0.0,0 STARLINK-5011,1 53925U 22119AR  24091.73569650  .00019450  00000-0  12356-2 0  9994,2 53925  53.2161 251.8489 0000956  95.1075 265.0027 15.08874936 84531,6917.774,95.435,540.3,538.977,0.0
53925.0,STARLINK-5011,PAYLOAD,2024-04-01 09:33:15,15.08863298,9.89e-05,53.2159,248.8742,85.5914,274.5191,0.0010772,0.00016908,0.0,0 STARLINK-5011,1 53925U 22119AR  24092.39809146  .00016908  00000-0  10772-2 0  9999,2 53925  53.2159 248.8742 0000989  85.5914 274.5191 15.08863298 84634,6917.809,95.436,540.358,538.99,0.0
53925.0,STARLINK-5011,PAYLOAD,2024-04-01 14:19:24,15.08837528,0.0001064,53.2155,247.9827,103.3392,256.7719,0.00064356,9.968e-05,0.0,0 STARLINK-5011,1 53925U 22119AR  24092.59681189  .00009968  00000-0  64356-3 0  9992,2 53925  53.2155 247.9827 0001064 103.3392 256.7719 15.08837528 85083,6917.888,95.438,540.489,539.017,0.0
53925.0,STARLINK-5011,PAYLOAD,2024-04-01 15:54:47,15.08835224,8.94e-05,53.2155,247.6855,61.9297,298.1785,0.00098634,0.00015442,0.0,0 STARLINK-5011,1 53925U 22119AR  24092.66305357  .00015442  00000-0  98634-3 0  9990,2 53925  53.2155 247.6855 0000894  61.9297 298.1785 15.08835224 84672,6917.895,95.438,540.378,539.142,0.0
53925.0,STARLINK-5011,PAYLOAD,2024-04-02 03:02:29,15.08838309,9.04e-05,53.2156,245.6037,67.1275,292.9813,0.00076432,0.00011897,0.0,0 STARLINK-5011,1 53925U 22119AR  24093.12673563  .00011897  00000-0  76432-3 0  9991,2 53925  53.2156 245.6037 0000904  67.1275 292.9813 15.08838309 84748,6917.886,95.438,540.376,539.125,0.0
53925.0,STARLINK-5011,PAYLOAD,2024-04-02 18:56:21,15.08832662,0.0001156,53.2172,242.6335,90.1311,269.9814,-5.3347e-06,-3.73e-06,0.0,0 STARLINK-5011,1 53925U 22119AR  24093.78914173 -.00000373  00000-0 -53347-5 0  9999,2 53925  53.2172 242.6335 0001156  90.1311 269.9814 15.08832662 84843,6917.903,95.438,540.568,538.968,0.0
53925.0,STARLINK-5011,PAYLOAD,2024-04-03 09:14:50,15.08838628,0.000115,53.2174,239.9567,82.3492,277.7631,0.00034987,5.284e-05,0.0,0 STARLINK-5011,1 53925U 22119AR  24094.38530358  .00005284  00000-0  34987-3 0  9996,2 53925  53.2174 239.9567 0001150  82.3492 277.7631 15.08838628 85357,6917.885,95.438,540.545,538.954,0.0
53925.0,STARLINK-5011,PAYLOAD,2024-04-03 17:11:45,15.08840677,0.0001102,53.2166,238.4691,77.2392,282.8723,0.00030221,4.525e-05,0.0,0 STARLINK-5011,1 53925U 22119AR  24094.71650362  .00004525  00000-0  30221-3 0  9995,2 53925  53.2166 238.4691 0001102  77.2392 282.8723 15.08840677 85401,6917.878,95.438,540.506,538.981,0.0
53925.0,STARLINK-5011,PAYLOAD,2024-04-04 02:44:04,15.08847412,0.0001126,53.2165,236.6846,75.5364,284.5753,0.00032312,4.859e-05,0.0,0 STARLINK-5011,1 53925U 22119AR  24095.11394078  .00004859  00000-0  32312-3 0  9992,2 53925  53.2165 236.6846 0001126  75.5364 284.5753 15.08847412 85044,6917.858,95.437,540.502,538.944,0.0
53925.0,STARLINK-5011,PAYLOAD,2024-04-04 15:27:09,15.0883753,8.8e-05,53.2144,234.3035,85.1918,274.9174,0.00020698,3.008e-05,0.0,0 STARLINK-5011,1 53925U 22119AR  24095.64386486  .00003008  00000-0  20698-3 0  9993,2 53925  53.2144 234.3035 0000880  85.1918 274.9174 15.08837530 85549,6917.888,95.438,540.362,539.144,0.0
53925.0,STARLINK-5011,PAYLOAD,2024-04-04 17:02:32,15.08841225,0.0001018,53.2137,234.0053,87.816,272.2949,0.00014586,2.034e-05,0.0,0 STARLINK-5011,1 53925U 22119AR  24095.71010264  .00002034  00000-0  14586-3 0  9996,2 53925  53.2137 234.0053 0001018  87.8160 272.2949 15.08841225 85132,6917.877,95.437,540.446,539.037,0.0
53925.0,STARLINK-5011,PAYLOAD,2024-04-05 02:34:51,15.08852253,0.0001022,53.2156,232.2226,81.2607,278.8501,0.00026296,3.901e-05,0.0,0 STARLINK-5011,1 53925U 22119AR  24096.10753737  .00003901  00000-0  26296-3 0  9994,2 53925  53.2156 232.2226 0001022  81.2607 278.8501 15.08852253 85199,6917.843,95.437,540.415,539.001,0.0
53925.0,STARLINK-5011,PAYLOAD,2024-04-05 15:17:56,15.08850272,0.0001237,53.2158,229.8418,98.2576,261.8556,0.00020124,2.917e-05,0.0,0 STARLINK-5011,1 53925U 22119AR  24096.63745705  .00002917  00000-0  20124-3 0  9998,2 53925  53.2158 229.8418 0001237  98.2576 261.8556 15.08850272 85693,6917.849,95.437,540.57,538.858,0.0
53925.0,STARLINK-5011,PAYLOAD,2024-04-06 15:08:43,15.08838175,0.0001407,53.2145,225.3837,86.5663,273.549,1.1954e-05,-9.8e-07,0.0,0 STARLINK-5011,1 53925U 22119AR  24097.63106051 -.00000098  00000-0  11954-4 0  9995,2 53925  53.2145 225.3837 0001407  86.5663 273.5490 15.08838175 85843,6917.886,95.438,540.724,538.778,0.0
53925.0,STARLINK-5011,PAYLOAD,2024-04-07 08:37:58,15.0883807,0.000154,53.2162,222.1119,90.8353,269.2815,6.717e-05,7.81e-06,0.0,0 STARLINK-5011,1 53925U 22119AR  24098.35970240  .00000781  00000-0  67170-4 0  9993,2 53925  53.2162 222.1119 0001540  90.8353 269.2815 15.08838070 85951,6917.886,95.438,540.817,538.686,0.0
53925.0,STARLINK-5011,PAYLOAD,2024-04-07 14:59:30,15.08836413,0.0001685,53.2162,220.9213,93.8348,266.2837,4.189e-05,3.79e-06,0.0,0 STARLINK-5011,1 53925U 22119AR  24098.62466388  .00000379  00000-0  41890-4 0  9990,2 53925  53.2162 220.9213 0001685  93.8348 266.2837 15.08836413 85993,6917.891,95.438,540.922,538.591,0.0
53925.0,STARLINK-5011,PAYLOAD,2024-04-08 00:31:49,15.08837807,0.0001693,53.2178,219.1377,93.5423,266.5763,8.6329e-05,1.086e-05,0.0,0 STARLINK-5011,1 53925U 22119AR  24099.02210481  .00001086  00000-0  86329-4 0  9998,2 53925  53.2178 219.1377 0001693  93.5423 266.5763 15.08837807 85631,6917.887,95.438,540.923,538.581,0.0
53925.0,STARLINK-5011,PAYLOAD,2024-04-08 14:50:18,15.08838578,0.0001785,53.2192,216.4621,94.1407,265.9789,0.00016228,2.295e-05,0.0,0 STARLINK-5011,1 53925U 22119AR  24099.61826723  .00002295  00000-0  16228-3 0  9998,2 53925  53.2192 216.4621 0001785  94.1407 265.9789 15.08838578 86144,6917.885,95.438,540.985,538.515,0.0
53925.0,STARLINK-5011,PAYLOAD,2024-04-09 00:22:36,15.08842498,0.0001839,53.2212,214.6786,93.9079,266.2123,0.0001913,2.758e-05,0.0,0 STARLINK-5011,1 53925U 22119AR  24100.01570587  .00002758  00000-0  19130-3 0  9998,2 53925  53.2212 214.6786 0001839  93.9079 266.2123 15.08842498 86200,6917.873,95.437,541.01,538.466,0.0
53925.0,STARLINK-5011,PAYLOAD,2024-04-09 06:44:09,15.08841728,0.0001909,53.2193,213.4903,97.7685,262.3524,0.00019236,2.775e-05,0.0,0 STARLINK-5011,1 53925U 22119AR  24100.28066630  .00002775  00000-0  19236-3 0  9992,2 53925  53.2193 213.4903 0001909  97.7685 262.3524 15.08841728 85823,6917.875,95.437,541.061,538.419,0.0
53925.0,STARLINK-5011,PAYLOAD,2024-04-09 14:41:05,15.08840497,0.0001956,53.2197,212.0033,97.0186,263.1029,0.00014526,2.024e-05,0.0,0 STARLINK-5011,1 53925U 22119AR  24100.61186779  .00002024  00000-0  14526-3 0  9990,2 53925  53.2197 212.0033 0001956  97.0186 263.1029 15.08840497 86290,6917.879,95.438,541.097,538.391,0.0
53925.0,STARLINK-5011,PAYLOAD,2024-04-10 00:13:23,15.08853605,0.0001285,53.2199,210.2193,87.9791,272.1349,0.00030871,4.63e-05,0.0,0 STARLINK-5011,1 53925U 22119AR  24101.00929978  .00004630  00000-0  30871-3 0  9996,2 53925  53.2199 210.2193 0001285  87.9791 272.1349 15.08853605 85934,6917.839,95.437,540.593,538.815,0.0
53925.0,STARLINK-5011,PAYLOAD,2024-04-10 16:07:15,15.08834963,0.0001525,53.2195,207.2455,88.1492,271.9675,6.9567e-06,-1.77e-06,0.0,0 STARLINK-5011,1 53925U 22119AR  24101.67171023 -.00000177  00000-0  69567-5 0  9998,2 53925  53.2195 207.2455 0001525  88.1492 271.9675 15.08834963 86032,6917.896,95.438,540.816,538.706,0.0
53925.0,STARLINK-5011,PAYLOAD,2024-04-11 14:22:39,15.08845957,0.0001361,53.216,203.0822,79.1765,280.938,0.00025862,3.831e-05,0.0,0 STARLINK-5011,1 53925U 22119AR  24102.59906684  .00003831  00000-0  25862-3 0  9996,2 53925  53.2160 203.0822 0001361  79.1765 280.9380 15.08845957 86596,6917.862,95.437,540.669,538.786,0.0
53925.0,STARLINK-5011,PAYLOAD,2024-04-11 23:54:57,15.08857852,0.0001237,53.2155,201.2986,83.6568,276.4565,0.00019987,2.896e-05,0.0,0 STARLINK-5011,1 53925U 22119AR  24102.99649955  .00002896  00000-0  19987-3 0  9996,2 53925  53.2155 201.2986 0001237  83.6568 276.4565 15.08857852 86237,6917.826,95.436,540.547,538.835,0.0
53925.0,STARLINK-5011,PAYLOAD,2024-04-12 12:38:03,15.08840407,0.0001493,53.2153,198.9193,81.9438,278.1724,8.6402e-05,1.087e-05,0.0,0 STARLINK-5011,1 53925U 22119AR  24103.52642808  .00001087  00000-0  86402-4 0  9994,2 53925  53.2153 198.9193 0001493  81.9438 278.1724 15.08840407 86311,6917.879,95.438,540.777,538.711,0.0
53925.0,STARLINK-5011,PAYLOAD,2024-04-13 12:28:50,15.08840205,0.0001363,53.2148,194.4571,88.7661,271.3487,0.00014862,2.078e-05,0.0,0 STARLINK-5011,1 53925U 22119AR  24104.52002974  .00002078  00000-0  14862-3 0  9990,2 53925  53.2148 194.4571 0001363  88.7661 271.3487 15.08840205 86884,6917.88,95.438,540.688,538.802,0.0
53925.0,STARLINK-5011,PAYLOAD,2024-04-14 10:44:14,15.08841896,0.0001355,53.2149,190.2928,94.3863,265.7284,0.00022168,3.242e-05,0.0,0 STARLINK-5011,1 53925U 22119AR  24105.44739098  .00003242  00000-0  22168-3 0  9998,2 53925  53.2149 190.2928 0001355  94.3863 265.7284 15.08841896 86602,6917.875,95.437,540.677,538.802,0.0
53925.0,STARLINK-5011,PAYLOAD,2024-04-15 12:10:24,15.08848787,0.0001464,53.216,185.534,111.9472,248.1675,0.0002339,3.437e-05,0.0,0 STARLINK-5011,1 53925U 22119AR  24106.50722535  .00003437  00000-0  23390-3 0  9998,2 53925  53.2160 185.5340 0001464 111.9472 248.1675 15.08848787 86765,6917.854,95.437,540.731,538.706,0.0
53925.0,STARLINK-5011,PAYLOAD,2024-04-15 21:42:42,15.08864975,0.0001403,53.2162,183.754,89.5576,270.5577,0.0004593,7.034e-05,0.0,0 STARLINK-5011,1 53925U 22119AR  24106.90465743  .00007034  00000-0  45930-3 0  9998,2 53925  53.2162 183.7540 0001403  89.5576 270.5577 15.08864975 86821,6917.804,95.436,540.64,538.698,0.0
